[{"OBJECT_NAME":"STARLINK-32503","OBJECT_ID":"2024-224U","EPOCH":"2026-03-09T07:03:35.560512","MEAN_MOTION":15.2758405,"ECCENTRICITY":2.971e-5,"INCLINATION":42.9915,"RA_OF_ASC_NODE":167.7568,"ARG_OF_PERICENTER":31.6864,"MEAN_ANOMALY":328.4006,"EPHEMERIS_TYPE":0,"CLASSIFICATION_TYPE":"U","NORAD_CAT_ID":62157,"ELEMENT_SET_NO":999,"REV_AT_EPOCH":7190,"BSTAR":0.00088870768,"MEAN_MOTION_DOT":0.00024277,"MEAN_MOTION_DDOT":0},{"OBJECT_NAME":"CZ-6A DEB","OBJECT_ID":"2022-151TQ","EPOCH":"2026-03-09T06:57:26.684352","MEAN_MOTION":15.22919125,"ECCENTRICITY":0.00409545,"INCLINATION":98.8216,"RA_OF_ASC_NODE":191.4692,"ARG_OF_PERICENTER":160.8215,"MEAN_ANOMALY":199.457,"EPHEMERIS_TYPE":0,"CLASSIFICATION_TYPE":"U","NORAD_CAT_ID":54975,"ELEMENT_SET_NO":999,"REV_AT_EPOCH":17711,"BSTAR":0.0066825196,"MEAN_MOTION_DOT":0.00163663,"MEAN_MOTION_DDOT":0}]
